IRIDIUM 106             
1 41917U 17003A   24265.52757404  .00000640  00000+0  22129-3 0  9994
2 41917  86.4027 353.3338 0002101 105.2752 254.8676 14.34216892402380
IRIDIUM 103             
1 41918U 17003B   24265.51487379  .00000103  00000+0  29829-4 0  9994
2 41918  86.4029 353.2409 0001547  96.3844 263.7528 14.34213875402402
IRIDIUM 109             
1 41919U 17003C   24265.52123430  .00000757  00000+0  26336-3 0  9995
2 41919  86.4029 353.2870 0002117  83.2639 276.8797 14.34217356402373
IRIDIUM 102             
1 41920U 17003D   24265.48951833  .00000567  00000+0  19538-3 0  9993
2 41920  86.4029 353.2374 0002247  93.6554 266.4898 14.34218606402454
IRIDIUM 105             
1 41921U 17003E   24265.46023991  .00000581  00000+0  20048-3 0  9991
2 41921  86.3984 321.6989 0002156  95.2714 264.8728 14.34214211404308
IRIDIUM 104             
1 41922U 17003F   24265.50220406  .00000699  00000+0  24237-3 0  9991
2 41922  86.4030 353.2651 0002037  81.6702 278.4725 14.34219961402441
IRIDIUM 114             
1 41923U 17003G   24265.50854408  .00000744  00000+0  25847-3 0  9996
2 41923  86.4030 353.2480 0002077 100.1397 260.0033 14.34220877402428
IRIDIUM 108             
1 41924U 17003H   24265.39729921  .00000694  00000+0  24063-3 0  9998
2 41924  86.3978 321.6435 0002301 100.2213 259.9243 14.34219069404261
